CZ-6A DEB               
1 54264U 22151F   22332.26720861  .00000361  00000+0  44902-3 0  9997
2 54264  98.5699 334.1554 0356121  48.9243 314.2084 13.46073156  2169
CZ-6A DEB               
1 54265U 22151G   22331.77124484  .00000481  00000+0  64430-3 0  9993
2 54265  98.9964 335.7497 0384684  35.4938 327.1147 13.37521801  2088
CZ-6A DEB               
1 54266U 22151H   22332.43412777  .00000179  00000+0  27435-3 0  9991
2 54266  98.9610 336.0251 0414611  25.8441 336.2774 13.32198954  2165
CZ-6A DEB               
1 54267U 22151J   22331.74431193  .00000714  00000+0  24335-3 0  9999
2 54267  98.9109 337.7100 0106008 172.0408 188.2490 14.36583209  2230
CZ-6A DEB               
1 54268U 22151K   22332.29524208  .00000124  00000+0  11804-3 0  9993
2 54268  98.7728 336.3946 0123485  47.6754 313.4791 13.93537029  1706
CZ-6A DEB               
1 54269U 22151L   22331.61829707  .00000183  00000+0  64982-4 0  9992
2 54269  98.7389 336.7786 0133559 243.4774 115.2669 14.41846755  1689
CZ-6A DEB               
1 54270U 22151M   22332.41922121 -.00000069  00000+0 -17247-4 0  9994
2 54270  98.8241 336.9984 0083326  42.2786 318.4764 14.01403515  1733
CZ-6A DEB               
1 54271U 22151N   22331.85367152  .00009456  00000+0  52026-2 0  9998
2 54271  98.7479 336.0360 0212146 323.2538  35.4240 14.01057523  1678
CZ-6A DEB               
1 54272U 22151P   22331.85963278 -.00000004  00000+0  21153-4 0  9990
2 54272  98.8193 336.6927 0000912 115.1459 244.9808 14.13284906  1671
CZ-6A DEB               
1 54273U 22151Q   22332.28441269 -.00000002  00000+0  22454-4 0  9993
2 54273  98.8193 337.1113 0000928 115.6360 244.4909 14.13284974  1737
CZ-6A DEB               
1 54274U 22151R   22331.96089106  .00056053  00000+0  17888-1 0  9994
2 54274  98.8289 337.1508 0242094 293.8355  63.7619 14.24047131  1719
CZ-6A DEB               
1 54275U 22151S   22331.71629786  .00002863  00000+0  85096-3 0  9990
2 54275  98.9074 337.7312 0130440 250.9117 107.7906 14.39229670  1717
CZ-6A DEB               
1 54276U 22151T   22331.57176611  .00000233  00000+0  24511-3 0  9993
2 54276  98.7410 335.0892 0209062  38.0779 323.4940 13.74476286  1608
CZ-6A DEB               
1 54277U 22151U   22331.88199441  .00000163  00000+0  10135-3 0  9993
2 54277  98.8873 337.2240 0047735 305.4681  54.2043 14.17546499  1687
CZ-6A DEB               
1 54278U 22151V   22331.75135338  .00002355  00000+0  12257-2 0  9996
2 54278  98.6146 335.4472 0146418 315.3651  43.5807 14.10191700  1673
CZ-6A DEB               
1 54279U 22151W   22331.55586745  .00000364  00000+0  14803-3 0  9995
2 54279  98.6352 335.8103 0144049 280.7059  77.7931 14.28141367  1662
CZ-6A DEB               
1 54280U 22151X   22331.61102743  .00001126  00000+0  43865-3 0  9993
2 54280  98.6562 336.0081 0089120 263.9404  95.1617 14.29535775  1677
CZ-6A DEB               
1 54281U 22151Y   22332.05572047  .00000220  00000+0  90548-4 0  9996
2 54281  98.6449 336.4959 0103778 254.4915 104.4791 14.33609129  1743
CZ-6A DEB               
1 54282U 22151Z   22331.74034111  .00002649  00000+0  95103-3 0  9995
2 54282  98.6286 336.0111 0123396 271.9546  86.7508 14.30553314  1694
CZ-6A DEB               
1 54283U 22151AA  22332.27547906  .00000045  00000+0  50838-4 0  9991
2 54283  98.7893 336.8284 0054328  48.9853 311.5995 14.07727685  1743
CZ-6A DEB               
1 54284U 22151AB  22331.48995798  .00001037  00000+0  62690-3 0  9990
2 54284  98.8181 336.2254 0050028  39.8270 320.6555 14.08083787  1631
CZ-6A DEB               
1 54285U 22151AC  22331.77159696  .00001229  00000+0  81053-3 0  9999
2 54285  98.8154 336.3373 0082693  48.2747 312.5453 14.01880792  1665
CZ-6A DEB               
1 54286U 22151AD  22331.71490686  .00002873  00000+0  71687-3 0  9999
2 54286  98.6975 336.7543 0150369 239.9855 118.6344 14.45830162  1717
CZ-6A DEB               
1 54287U 22151AE  22331.98475771  .00011712  00000+0  22669-2 0  9994
2 54287  98.7038 337.2537 0186124 238.3525 119.9396 14.52984933  1752
CZ-6A DEB               
1 54288U 22151AF  22331.73989384  .00001549  00000+0  35217-3 0  9999
2 54288  98.7851 337.3675 0160975 231.9318 126.7260 14.49922152  1718
CZ-6A DEB               
1 54289U 22151AG  22331.78523824  .00000106  00000+0  87929-4 0  9994
2 54289  98.8067 336.4277 0055938  45.6236 314.9495 14.07067430  1677
CZ-6A DEB               
1 54290U 22151AH  22331.75295473  .00000255  00000+0  10834-3 0  9994
2 54290  98.5709 335.6869 0127597 274.8384  83.8239 14.29346009  1694
CZ-6A DEB               
1 54291U 22151AJ  22331.73944596  .00000274  00000+0  19197-3 0  9992
2 54291  98.8047 336.3172 0081667 353.3850   6.6233 14.04771102  1669
CZ-6A DEB               
1 54292U 22151AK  22331.80419975  .00000248  00000+0  17632-3 0  9992
2 54292  98.8255 336.5050 0063175  41.7633 318.8332 14.05351801  1679
CZ-6A DEB               
1 54293U 22151AL  22331.76315267  .00000246  00000+0  13098-3 0  9997
2 54293  98.8160 336.8316 0040125 276.3459  83.3149 14.21954540  1683
CZ-6A DEB               
1 54294U 22151AM  22332.30095492  .00003144  00000+0  71151-3 0  9998
2 54294  98.8527 338.3073 0162578 234.7871 123.8008 14.49135769  1791
CZ-6A DEB               
1 54295U 22151AN  22331.64609975  .00002129  00000+0  10020-2 0  9991
2 54295  98.7426 336.1106 0174524 308.0607  50.4929 14.13321249  1662
CZ-6A DEB               
1 54296U 22151AP  22332.07464443  .00001018  00000+0  44673-3 0  9997
2 54296  98.8685 337.5238 0032647 208.9718 150.9650 14.25584829  1735
CZ-6A DEB               
1 54297U 22151AQ  22331.48416401  .00000693  00000+0  33383-3 0  9997
2 54297  98.7537 336.2115 0027311 153.2650 206.9942 14.21731642  1650
CZ-6A DEB               
1 54298U 22151AR  22331.72943499  .00000354  00000+0  23851-3 0  9990
2 54298  98.7650 336.1155 0063120  47.4379 313.2092 14.05679554  1675
CZ-6A DEB               
1 54299U 22151AS  22331.57434010  .00000079  00000+0  72214-4 0  9990
2 54299  98.8130 336.2508 0055610  38.1077 322.4004 14.06843643  1623
CZ-6A DEB               
1 54300U 22151AT  22331.50155964  .00000711  00000+0  44471-3 0  9990
2 54300  98.9039 336.6698 0061195   4.6024 355.5695 14.07005558  1612
CZ-6A DEB               
1 54301U 22151AU  22332.21015354  .00000376  00000+0  24682-3 0  9997
2 54301  98.9030 337.3678 0056907   9.8688 350.3584 14.07223601  1710
CZ-6A DEB               
1 54302U 22151AV  22331.49135253  .00001565  00000+0  39129-3 0  9991
2 54302  98.9636 338.0137 0141006 191.2443 168.5587 14.47297408  1678
CZ-6A DEB               
1 54303U 22151AW  22332.26363371 -.00000071  00000+0 -16215-4 0  9997
2 54303  98.8342 337.0871 0047814  45.0615 315.4418 14.08763960  1725
CZ-6A DEB               
1 54304U 22151AX  22331.83923358  .00000526  00000+0  32759-3 0  9990
2 54304  98.8355 336.6734 0046992  33.9759 326.4405 14.08617229  1661
CZ-6A DEB               
1 54305U 22151AY  22331.82444829  .00000189  00000+0  10251-3 0  9999
2 54305  98.8201 336.9364 0056132 140.4014 220.1284 14.22777688  1699
CZ-6A DEB               
1 54306U 22151AZ  22331.75432911  .00000159  00000+0  11425-3 0  9992
2 54306  98.8178 336.5247 0041350  37.1987 323.2036 14.09869249  1652
CZ-6A DEB               
1 54307U 22151BA  22331.64340567  .00003319  00000+0  11159-2 0  9990
2 54307  98.6181 335.9229 0131235 267.7038  90.9115 14.33070230  1666
CZ-6A DEB               
1 54308U 22151BB  22332.40429562  .00004012  00000+0  13441-2 0  9996
2 54308  98.6982 337.1372 0122793 261.6298  97.0950 14.33706051  1773
CZ-6A DEB               
1 54309U 22151BC  22331.81915429  .00000273  00000+0  17697-3 0  9996
2 54309  98.8172 336.6010 0038452  35.5917 324.7807 14.10425814  1663
CZ-6A DEB               
1 54310U 22151BD  22331.63090697  .00006036  00000+0  17243-2 0  9998
2 54310  98.6123 336.0735 0127969 244.8824 113.9042 14.40788131  1690
CZ-6A DEB               
1 54311U 22151BE  22331.74195150  .00003244  00000+0  10140-2 0  9998
2 54311  98.6978 336.5524 0127900 256.4515 102.2396 14.36865326  1680
CZ-6A DEB               
1 54312U 22151BF  22331.57296683  .00001276  00000+0  61937-3 0  9997
2 54312  98.9689 337.4179 0024179 284.9699  74.8800 14.20028630  1655
CZ-6A DEB               
1 54313U 22151BG  22332.42964539  .00005430  00000+0  16655-2 0  9997
2 54313  98.6949 337.2500 0125002 250.8662 107.8957 14.37661527  1787
CZ-6A DEB               
1 54314U 22151BH  22331.67553536  .00005573  00000+0  14545-2 0  9999
2 54314  98.6183 336.2110 0152956 249.8325 108.6356 14.43096596  1682
CZ-6A DEB               
1 54315U 22151BJ  22331.61732726  .00000077  00000+0  68520-4 0  9992
2 54315  98.8329 336.4623 0045456  49.9094 310.6048 14.09415534  1633
CZ-6A DEB               
1 54316U 22151BK  22332.25481865  .00000397  00000+0  24957-3 0  9999
2 54316  98.7971 336.8959 0042570  32.4540 327.9235 14.09547003  1736
CZ-6A DEB               
1 54317U 22151BL  22332.25040364  .00007422  00000+0  14145-2 0  9998
2 54317  98.7111 337.5928 0186285 234.4244 123.9466 14.53784934  1784
CZ-6A DEB               
1 54318U 22151BM  22331.78661614  .00000729  00000+0  45630-3 0  9990
2 54318  98.8160 336.4754 0055556  40.5065 320.0219 14.06952379  1658
CZ-6A DEB               
1 54319U 22151BN  22332.08703180  .00011323  00000+0  26174-2 0  9993
2 54319  98.6604 336.8721 0201611 261.4663  96.3635 14.43602561  1753
CZ-6A DEB               
1 54320U 22151BP  22332.25059986  .00000280  00000+0  23718-3 0  9994
2 54320  98.8421 336.6674 0136794  11.2846 349.1329 13.91178576  1713
CZ-6A DEB               
1 54321U 22151BQ  22331.81395926  .00000902  00000+0  29483-3 0  9999
2 54321  98.6881 336.5660 0127742 256.4845 102.2081 14.36597934  1694
CZ-6A DEB               
1 54322U 22151BR  22331.64816431  .00004770  00000+0  10712-2 0  9991
2 54322  98.7330 336.8787 0197860 258.1036  99.7909 14.45639657  1695
